GLOBALSTAR M084         
1 38040U 11080A   26003.64911167 -.00000117  00000+0 -76102-4 0  9991
2 38040  51.9997 158.1956 0001288 102.5227 339.2659 12.62267107647985
GLOBALSTAR M080         
1 38041U 11080B   26003.87431451 -.00000114  00000+0 -59778-4 0  9997
2 38041  52.0043 159.1711 0000584 112.1514  43.3165 12.62265453648139
GLOBALSTAR M082         
1 38042U 11080C   26004.05154885 -.00000116  00000+0 -70812-4 0  9996
2 38042  52.0071 114.1148 0000537 127.1031  43.8521 12.62266397648863
GLOBALSTAR M092         
1 38043U 11080D   26004.02393083 -.00000085  00000+0  10560-3 0  9996
2 38043  52.0060 204.5881 0001041  85.1547  79.9996 12.62269167647319
GLOBALSTAR M090         
1 38044U 11080E   26003.67708670 -.00000092  00000+0  67467-4 0  9996
2 38044  52.0118 109.1575 0000638 107.8641  39.4841 12.62265732648935
GLOBALSTAR M086         
1 38045U 11080F   26004.02299119 -.00000094  00000+0  55195-4 0  9997
2 38045  51.9896 108.3023 0001505  69.4073 101.5692 12.62281812648923
GLOBALSTAR M097         
1 39072U 13005A   26004.17213023 -.00000092  00000+0  63946-4 0  9994
2 39072  52.0070  22.6114 0000328  69.8719 290.2183 12.62267860596191
GLOBALSTAR M093         
1 39073U 13005B   26004.06680489 -.00000089  00000+0  80818-4 0  9990
2 39073  52.0133  16.2177 0000393  25.8688 334.2198 12.62271417596131
